NORAD_CAT_ID,OBJECT_NAME,OBJECT_TYPE,EPOCH,MEAN_MOTION,ECCENTRICITY,INCLINATION,RA_OF_ASC_NODE,ARG_OF_PERICENTER,MEAN_ANOMALY,BSTAR,MEAN_MOTION_DOT,MEAN_MOTION_DDOT,TLE_LINE0,TLE_LINE1,TLE_LINE2,SEMIMAJOR_AXIS,PERIOD,APOGEE,PERIGEE,DECAYED
55634.0,STARLINK-5500,PAYLOAD,2023-04-09 08:00:01,15.13321535,0.0003199,70.003,10.8289,272.468,38.5524,-0.077455,-0.01263371,0.0,0 STARLINK-5500,1 55634U 23021G   23099.33334491 -.01263371  00000-0 -77455-1 0  9998,2 55634  70.0030  10.8289 0003199 272.4680  38.5524 15.13321535  8413,6904.216,95.155,528.29,523.872,0.0
55634.0,STARLINK-5500,PAYLOAD,2023-04-09 14:00:01,15.12604764,0.0003093,70.0031,10.1841,266.7233,325.5892,-0.069898,-0.01128359,0.0,0 STARLINK-5500,1 55634U 23021G   23099.58334491 -.01128359  00000-0 -69898-1 0  9993,2 55634  70.0031  10.1841 0003093 266.7233 325.5892 15.12604764  1309,6906.397,95.2,530.398,526.126,0.0
55634.0,STARLINK-5500,PAYLOAD,2023-04-09 22:00:00,15.11787392,0.000314,70.0033,9.3254,268.1163,338.3182,-0.07764,-0.01217145,0.0,0 STARLINK-5500,1 55634U 23021G   23099.91667824 -.01217145  00000-0 -77640-1 0  9995,2 55634  70.0033   9.3254 0003140 268.1163 338.3182 15.11787392  1302,6908.886,95.251,532.92,528.582,0.0
55634.0,STARLINK-5500,PAYLOAD,2023-04-10 00:00:00,15.11544945,0.0003306,70.0031,9.1109,271.1845,68.6284,-0.074726,-0.01167796,0.0,0 STARLINK-5500,1 55634U 23021G   23100.00001157 -.01167796  00000-0 -74726-1 0  9997,2 55634  70.0031   9.1109 0003306 271.1845  68.6284 15.11544945  8513,6909.625,95.267,533.774,529.205,0.0
55634.0,STARLINK-5500,PAYLOAD,2023-04-10 14:00:01,15.10029244,0.0003177,70.0028,7.6113,265.1052,6.5017,-0.075126,-0.01128839,0.0,0 STARLINK-5500,1 55634U 23021G   23100.58334491 -.01128839  00000-0 -75126-1 0  9990,2 55634  70.0028   7.6113 0003177 265.1052   6.5017 15.10029244  1300,6914.248,95.362,538.309,533.916,0.0
55634.0,STARLINK-5500,PAYLOAD,2023-04-10 16:00:00,15.09855408,0.0003279,70.0027,7.3975,266.7144,97.734,-0.08021,-0.01193811,0.0,0 STARLINK-5500,1 55634U 23021G   23100.66667824 -.01193811  00000-0 -80210-1 0  9990,2 55634  70.0027   7.3975 0003279 266.7144  97.7340 15.09855408  8613,6914.778,95.373,538.911,534.376,0.0
55634.0,STARLINK-5500,PAYLOAD,2023-04-10 22:00:00,15.09205346,0.0003208,70.003,6.756,267.1928,15.4489,-0.082745,-0.01208351,0.0,0 STARLINK-5500,1 55634U 23021G   23100.91667824 -.01208351  00000-0 -82745-1 0  9999,2 55634  70.0030   6.7560 0003208 267.1928  15.4489 15.09205346  1307,6916.764,95.414,540.848,536.41,0.0
55634.0,STARLINK-5500,PAYLOAD,2023-04-11 06:00:00,15.08371022,0.0003194,70.0025,5.9017,271.1061,21.5306,-0.08668,-0.0123473,0.0,0 STARLINK-5500,1 55634U 23021G   23101.25001157 -.01234730  00000-0 -86680-1 0  9990,2 55634  70.0025   5.9017 0003194 271.1061  21.5306 15.08371022  8707,6919.314,95.467,543.389,538.969,0.0
55634.0,STARLINK-5500,PAYLOAD,2023-04-11 14:00:01,15.07454399,0.0003242,70.0026,5.0487,264.3668,37.2642,-0.080751,-0.01130428,0.0,0 STARLINK-5500,1 55634U 23021G   23101.58334491 -.01130428  00000-0 -80751-1 0  9998,2 55634  70.0026   5.0487 0003242 264.3668  37.2642 15.07454399  1305,6922.119,95.525,546.228,541.74,0.0
55634.0,STARLINK-5500,PAYLOAD,2023-04-11 22:00:00,15.06624848,0.0003243,70.0029,4.1968,266.6989,42.8789,-0.088267,-0.01201749,0.0,0 STARLINK-5500,1 55634U 23021G   23101.91667824 -.01201749  00000-0 -88267-1 0  9999,2 55634  70.0029   4.1968 0003243 266.6989  42.8789 15.06624848  1305,6924.66,95.578,548.77,544.279,0.0
55634.0,STARLINK-5500,PAYLOAD,2023-04-12 14:00:01,15.04879417,0.0003282,70.0027,2.4962,264.1857,58.1995,-0.086718,-0.01132043,0.0,0 STARLINK-5500,1 55634U 23021G   23102.58334491 -.01132043  00000-0 -86718-1 0  9993,2 55634  70.0027   2.4962 0003282 264.1857  58.1995 15.04879417  8902,6930.013,95.689,554.152,549.603,0.0
55634.0,STARLINK-5500,PAYLOAD,2023-04-12 22:00:01,15.04044692,0.0003283,70.0029,1.6476,266.9248,60.3828,-0.094068,-0.01195185,0.0,0 STARLINK-5500,1 55634U 23021G   23102.91668981 -.01195185  00000-0 -94068-1 0  9997,2 55634  70.0029   1.6476 0003283 266.9248  60.3828 15.04044692  8954,6932.577,95.742,556.718,552.166,0.0
55634.0,STARLINK-5500,PAYLOAD,2023-04-13 12:00:00,15.02510725,0.0003076,70.0029,0.1654,265.7944,337.4782,-0.09229,-0.01130872,0.0,0 STARLINK-5500,1 55634U 23021G   23103.50001157 -.01130872  00000-0 -92290-1 0  9996,2 55634  70.0029   0.1654 0003076 265.7944 337.4782 15.02510725  1308,6937.294,95.84,561.293,557.025,0.0
55634.0,STARLINK-5500,PAYLOAD,2023-04-14 14:00:01,14.99518925,0.0003242,70.0031,357.4222,265.9195,70.2621,-0.042715,-0.00495432,0.0,0 STARLINK-5500,1 55634U 23021G   23104.58335648 -.00495432  00000-0 -42715-1 0  9992,2 55634  70.0031 357.4222 0003242 265.9195  70.2621 14.99518925  1304,6946.519,96.031,570.636,566.132,0.0
55634.0,STARLINK-5500,PAYLOAD,2023-04-15 00:00:00,14.99129728,0.0003254,70.0032,356.3703,271.472,152.9541,0.00038683,4.622e-05,0.0,0 STARLINK-5500,1 55634U 23021G   23105.00001157  .00004622  00000-0  38683-3 0  9991,2 55634  70.0032 356.3703 0003254 271.4720 152.9541 14.99129728  9267,6947.721,96.056,571.847,567.325,0.0
55634.0,STARLINK-5500,PAYLOAD,2023-04-15 14:00:01,14.99082001,0.0003428,70.0031,354.8979,267.7337,63.9835,0.0069767,0.00085837,0.0,0 STARLINK-5500,1 55634U 23021G   23105.58334491  .00085837  00000-0  69767-2 0  9997,2 55634  70.0031 354.8979 0003428 267.7337  63.9835 14.99082001  1305,6947.868,96.059,572.115,567.352,0.0
55634.0,STARLINK-5500,PAYLOAD,2023-04-15 22:00:01,14.99144863,0.0003449,70.0032,354.0565,270.8887,59.3156,-0.001842,-0.0002247,0.0,0 STARLINK-5500,1 55634U 23021G   23105.91668981 -.00022470  00000-0 -18420-2 0  9994,2 55634  70.0032 354.0565 0003449 270.8887  59.3156 14.99144863  1307,6947.674,96.055,571.935,567.143,0.0
55634.0,STARLINK-5500,PAYLOAD,2023-04-16 06:00:00,14.99149844,0.0003356,70.0029,353.2151,272.3936,56.199,-0.0020275,-0.00024719,0.0,0 STARLINK-5500,1 55634U 23021G   23106.25001157 -.00024719  00000-0 -20275-2 0  9997,2 55634  70.0029 353.2151 0003356 272.3936  56.1990 14.99149844  9453,6947.659,96.054,571.855,567.192,0.0
55634.0,STARLINK-5500,PAYLOAD,2023-04-16 10:00:00,14.99130656,0.0003321,70.0031,352.7944,268.6311,239.1941,0.0010585,0.00012825,0.0,0 STARLINK-5500,1 55634U 23021G   23106.41667824  .00012825  00000-0  10585-2 0  9990,2 55634  70.0031 352.7944 0003321 268.6311 239.1941 14.99130656  1303,6947.718,96.056,571.89,567.276,0.0
55634.0,STARLINK-5500,PAYLOAD,2023-04-16 22:00:00,14.99174925,0.0003362,70.003,351.5323,270.9013,54.5999,-0.0046228,-0.00056028,0.0,0 STARLINK-5500,1 55634U 23021G   23106.91667824 -.00056028  00000-0 -46228-2 0  9993,2 55634  70.0030 351.5323 0003362 270.9013  54.5999 14.99174925  1309,6947.581,96.053,571.782,567.11,0.0
55634.0,STARLINK-5500,PAYLOAD,2023-04-17 14:00:01,14.99104427,0.0003323,70.0025,349.8494,267.9003,54.5253,0.0062827,0.00077239,0.0,0 STARLINK-5500,1 55634U 23021G   23107.58334491  .00077239  00000-0  62827-2 0  9996,2 55634  70.0025 349.8494 0003323 267.9003  54.5253 14.99104427  9653,6947.799,96.057,571.973,567.355,0.0
55634.0,STARLINK-5500,PAYLOAD,2023-04-17 22:00:00,14.99164719,0.0003392,70.0025,349.0079,270.7609,50.1083,-0.0044157,-0.00053527,0.0,0 STARLINK-5500,1 55634U 23021G   23107.91667824 -.00053527  00000-0 -44157-2 0  9994,2 55634  70.0025 349.0079 0003392 270.7609  50.1083 14.99164719  9703,6947.613,96.053,571.834,567.121,0.0
55634.0,STARLINK-5500,PAYLOAD,2023-04-18 01:22:38,14.99133076,0.0003087,70.001,348.6518,264.9323,95.1484,0.00018427,2.152e-05,0.0,0 STARLINK-5500,1 55634U 23021G   23108.05739329  .00002152  00000-0  18427-3 0  9998,2 55634  70.0010 348.6518 0003087 264.9323  95.1484 14.99133076 10022,6947.711,96.056,571.72,567.431,0.0
55634.0,STARLINK-5500,PAYLOAD,2023-04-18 15:47:23,14.9913879,0.0003053,70.001,347.1368,267.4308,92.6502,-4.7443e-05,-6.72e-06,0.0,0 STARLINK-5500,1 55634U 23021G   23108.65791278 -.00000672  00000-0 -47443-4 0  9993,2 55634  70.0010 347.1368 0003053 267.4308  92.6502 14.99138790  9819,6947.693,96.055,571.679,567.437,0.0
55634.0,STARLINK-5500,PAYLOAD,2023-04-18 17:23:28,14.99138586,0.0003021,70.0011,346.9679,265.8935,94.1879,-3.5091e-05,-5.21e-06,0.0,0 STARLINK-5500,1 55634U 23021G   23108.72463596 -.00000521  00000-0 -35091-4 0  9999,2 55634  70.0011 346.9679 0003021 265.8935  94.1879 14.99138586 10128,6947.694,96.055,571.657,567.46,0.0
55634.0,STARLINK-5500,PAYLOAD,2023-04-19 01:23:53,14.99142036,0.0003237,70.0007,346.1261,267.8497,92.2292,-1.6275e-05,-2.92e-06,0.0,0 STARLINK-5500,1 55634U 23021G   23109.05825306 -.00000292  00000-0 -16275-4 0  9995,2 55634  70.0007 346.1261 0003237 267.8497  92.2292 14.99142036 10174,6947.683,96.055,571.797,567.299,0.0
55634.0,STARLINK-5500,PAYLOAD,2023-04-19 17:24:42,14.99138414,0.000324,70.0003,344.4414,267.6011,92.4777,1.0077e-05,2.9e-07,0.0,0 STARLINK-5500,1 55634U 23021G   23109.72549464  .00000029  00000-0  10077-4 0  9997,2 55634  70.0003 344.4414 0003240 267.6011  92.4777 14.99138414 10271,6947.694,96.055,571.81,567.308,0.0
55634.0,STARLINK-5500,PAYLOAD,2023-04-20 01:25:07,14.99141924,0.0003162,70.0004,343.5992,267.2778,92.8019,4.2133e-05,4.2e-06,0.0,0 STARLINK-5500,1 55634U 23021G   23110.05911142  .00000420  00000-0  42133-4 0  9994,2 55634  70.0004 343.5992 0003162 267.2778  92.8019 14.99141924 10028,6947.683,96.055,571.745,567.351,0.0
55634.0,STARLINK-5500,PAYLOAD,2023-04-20 15:49:52,14.99137574,0.0003056,70.0005,342.0834,265.3942,94.6868,1.8089e-05,1.27e-06,0.0,0 STARLINK-5500,1 55634U 23021G   23110.65963090  .00000127  00000-0  18089-4 0  9996,2 55634  70.0005 342.0834 0003056 265.3942  94.6868 14.99137574 10413,6947.697,96.055,571.685,567.438,0.0
55634.0,STARLINK-5500,PAYLOAD,2023-04-21 01:26:21,14.99136904,0.0003075,70.0004,341.0728,265.6799,94.4009,8.4487e-06,9e-08,0.0,0 STARLINK-5500,1 55634U 23021G   23111.05997596  .00000009  00000-0  84487-5 0  9994,2 55634  70.0004 341.0728 0003075 265.6799  94.4009 14.99136904 10171,6947.699,96.055,571.7,567.427,0.0
